[{"OBJECT_NAME":"TOMORROW-S2","OBJECT_ID":"2024-149T","EPOCH":"2026-03-09T18:02:42.746496","MEAN_MOTION":15.30674935,"ECCENTRICITY":0.0001648,"INCLINATION":97.3857,"RA_OF_ASC_NODE":150.0385,"ARG_OF_PERICENTER":234.3331,"MEAN_ANOMALY":125.7757,"EPHEMERIS_TYPE":0,"CLASSIFICATION_TYPE":"U","NORAD_CAT_ID":60485,"ELEMENT_SET_NO":999,"REV_AT_EPOCH":8686,"BSTAR":0.00027683033,"MEAN_MOTION_DOT":8.133e-5,"MEAN_MOTION_DDOT":0},{"OBJECT_NAME":"STARLINK-35337","OBJECT_ID":"2025-221J","EPOCH":"2026-03-09T08:37:32.758752","MEAN_MOTION":15.30210838,"ECCENTRICITY":0.00010014,"INCLINATION":53.1594,"RA_OF_ASC_NODE":89.8199,"ARG_OF_PERICENTER":89.3245,"MEAN_ANOMALY":270.787,"EPHEMERIS_TYPE":0,"CLASSIFICATION_TYPE":"U","NORAD_CAT_ID":65831,"ELEMENT_SET_NO":999,"REV_AT_EPOCH":2603,"BSTAR":0.00079446404,"MEAN_MOTION_DOT":0.00023252,"MEAN_MOTION_DDOT":0}]
